{"type": "FeatureCollection", "features": [ {"type": "Feature", "properties": {"norad_id": 42917, "name": "QZS-3 (QZSS/PRN 199)", "group": "gnss", "lat": -0.05418627023451877, "lon": 152.3655420441569, "alt_km": 35788.264781384016, "timestamp": "2025-12-06T20:37:56.313231+00:00", "meta": {"OBJECT_NAME": "QZS-3 (QZSS/PRN 199)", "OBJECT_ID": "2017-048A", "EPOCH": "2025-12-06T13:34:38.675424", "MEAN_MOTION": 1.00274509, "ECCENTRICITY": 0.00022241, "INCLINATION": 0.0682, "RA_OF_ASC_NODE": 213.7971, "ARG_OF_PERICENTER": 46.4896, "MEAN_ANOMALY": 145.9976, "EPHEMERIS_TYPE": 0, "CLASSIFICATION_TYPE": "U", "NORAD_CAT_ID": 42917, "ELEMENT_SET_NO": 999, "REV_AT_EPOCH": 3032, "BSTAR": 0, "MEAN_MOTION_DOT": -3.41e-06, "MEAN_MOTION_DDOT": 0}, "tle": {"line1": "1 42917U 17048A   25340.56572541 -.00000341  00000+0  00000+0 0  9999", "line2": "2 42917   0.0682 213.7971 0002224  46.4896 145.9976  1.00274509 30325"}}, "geometry": {"type": "Point", "coordinates": [152.3655420441569, -0.05418627023451877]}}, {"type": "Feature", "properties": {"norad_id": 42939, "name": "COSMOS 2522 (752)", "group": "gnss", "lat": 61.657087819119205, "lon": -45.960372295334594, "alt_km": 19132.56946483423, "timestamp": "2025-12-06T20:37:56.313242+00:00", "meta": {"OBJECT_NAME": "COSMOS 2522 (752)", "OBJECT_ID": "2017-055A", "EPOCH": "2025-12-02T23:20:47.282208", "MEAN_MOTION": 2.1310185, "ECCENTRICITY": 0.00065327, "INCLINATION": 64.0758, "RA_OF_ASC_NODE": 198.5618, "ARG_OF_PERICENTER": 226.0683, "MEAN_ANOMALY": 133.9743, "EPHEMERIS_TYPE": 0, "CLASSIFICATION_TYPE": "U", "NORAD_CAT_ID": 42939, "ELEMENT_SET_NO": 999, "REV_AT_EPOCH": 6379, "BSTAR": 0, "MEAN_MOTION_DOT": 1.07e-06, "MEAN_MOTION_DDOT": 0}, "tle": {"line1": "1 42939U 17055A   25336.97276947  .00000107  00000+0  00000+0 0  9991", "line2": "2 42939  64.0758 198.5618 0006532 226.0683 133.9743  2.13101850 63796"}}, "geometry": {"type": "Point", "coordinates": [-45.960372295334594, 61.657087819119205]}}, {"type": "Feature", "properties": {"norad_id": 42965, "name": "QZS-4 (QZSS/PRN 195)", "group": "gnss", "lat": 7.851770705710745, "lon": 156.5507631851716, "alt_km": 36307.73369414052, "timestamp": "2025-12-06T20:37:56.313267+00:00", "meta": {"OBJECT_NAME": "QZS-4 (QZSS/PRN 195)", "OBJECT_ID": "2017-062A", "EPOCH": "2025-12-06T08:03:51.568992", "MEAN_MOTION": 1.0025386, "ECCENTRICITY": 0.07524888, "INCLINATION": 40.2291, "RA_OF_ASC_NODE": 345.9526, "ARG_OF_PERICENTER": 271.3747, "MEAN_ANOMALY": 75.9167, "EPHEMERIS_TYPE": 0, "CLASSIFICATION_TYPE": "U", "NORAD_CAT_ID": 42965, "ELEMENT_SET_NO": 999, "REV_AT_EPOCH": 2986, "BSTAR": 0, "MEAN_MOTION_DOT": -3.41e-06, "MEAN_MOTION_DDOT": 0}, "tle": {"line1": "1 42965U 17062A   25340.33601353 -.00000341  00000+0  00000+0 0  9997", "line2": "2 42965  40.2291 345.9526 0752488 271.3747  75.9167  1.00253860 29860"}}, "geometry": {"type": "Point", "coordinates": [156.5507631851716, 7.851770705710745]}}, {"type": "Feature", "properties": {"norad_id": 43001, "name": "BEIDOU-3 M1 (C19)", "group": "gnss", "lat": -23.964006873465717, "lon": 52.3585534239655, "alt_km": 21508.99526124424, "timestamp": "2025-12-06T20:37:56.313283+00:00", "meta": {"OBJECT_NAME": "BEIDOU-3 M1 (C19)", "OBJECT_ID": "2017-069A", "EPOCH": "2025-12-06T08:47:12.602112", "MEAN_MOTION": 1.86230764, "ECCENTRICITY": 0.00089894, "INCLINATION": 56.5217, "RA_OF_ASC_NODE": 69.4444, "ARG_OF_PERICENTER": 303.7678, "MEAN_ANOMALY": 56.1608, "EPHEMERIS_TYPE": 0, "CLASSIFICATION_TYPE": "U", "NORAD_CAT_ID": 43001, "ELEMENT_SET_NO": 999, "REV_AT_EPOCH": 5501, "BSTAR": 0, "MEAN_MOTION_DOT": -4.5e-07, "MEAN_MOTION_DDOT": 0}, "tle": {"line1": "1 43001U 17069A   25340.36611808 -.00000045  00000+0  00000+0 0  9996", "line2": "2 43001  56.5217  69.4444 0008989 303.7678  56.1608  1.86230764 55019"}}, "geometry": {"type": "Point", "coordinates": [52.3585534239655, -23.964006873465717]}}, {"type": "Feature", "properties": {"norad_id": 43002, "name": "BEIDOU-3 M2 (C20)", "group": "gnss", "lat": 10.196544921969531, "lon": 76.29849489220452, "alt_km": 21513.746473778858, "timestamp": "2025-12-06T20:37:56.313295+00:00", "meta": {"OBJECT_NAME": "BEIDOU-3 M2 (C20)", "OBJECT_ID": "2017-069B", "EPOCH": "2025-12-06T07:18:26.076672", "MEAN_MOTION": 1.8623066, "ECCENTRICITY": 0.00062871, "INCLINATION": 56.5209, "RA_OF_ASC_NODE": 69.4828, "ARG_OF_PERICENTER": 331.4917, "MEAN_ANOMALY": 28.4877, "EPHEMERIS_TYPE": 0, "CLASSIFICATION_TYPE": "U", "NORAD_CAT_ID": 43002, "ELEMENT_SET_NO": 999, "REV_AT_EPOCH": 5500, "BSTAR": 0, "MEAN_MOTION_DOT": -4.6e-07, "MEAN_MOTION_DDOT": 0}, "tle": {"line1": "1 43002U 17069B   25340.30446848 -.00000046  00000+0  00000+0 0  9992", "line2": "2 43002  56.5209  69.4828 0006287 331.4917  28.4877  1.86230660 55004"}}, "geometry": {"type": "Point", "coordinates": [76.29849489220452, 10.196544921969531]}}, {"type": "Feature", "properties": {"norad_id": 43055, "name": "GSAT0215 (GALILEO 19)", "group": "gnss", "lat": 24.95762725533854, "lon": 27.89780142322915, "alt_km": 23229.399564396797, "timestamp": "2025-12-06T20:37:56.313306+00:00", "meta": {"OBJECT_NAME": "GSAT0215 (GALILEO 19)", "OBJECT_ID": "2017-079A", "EPOCH": "2025-12-06T00:43:24.455424", "MEAN_MOTION": 1.70473755, "ECCENTRICITY": 0.00048437, "INCLINATION": 55.1369, "RA_OF_ASC_NODE": 226.8228, "ARG_OF_PERICENTER": 284.5496, "MEAN_ANOMALY": 75.4946, "EPHEMERIS_TYPE": 0, "CLASSIFICATION_TYPE": "U", "NORAD_CAT_ID": 43055, "ELEMENT_SET_NO": 999, "REV_AT_EPOCH": 4969, "BSTAR": 0, "MEAN_MOTION_DOT": 3.4e-07, "MEAN_MOTION_DDOT": 0}, "tle": {"line1": "1 43055U 17079A   25340.03014416  .00000034  00000+0  00000+0 0  9999", "line2": "2 43055  55.1369 226.8228 0004843 284.5496  75.4946  1.70473755 49697"}}, "geometry": {"type": "Point", "coordinates": [27.89780142322915, 24.95762725533854]}}, {"type": "Feature", "properties": {"norad_id": 43056, "name": "GSAT0216 (GALILEO 20)", "group": "gnss", "lat": -24.040386159110625, "lon": -151.29170763039042, "alt_km": 23217.789531071765, "timestamp": "2025-12-06T20:37:56.313317+00:00", "meta": {"OBJECT_NAME": "GSAT0216 (GALILEO 20)", "OBJECT_ID": "2017-079B", "EPOCH": "2025-12-03T23:24:20.577888", "MEAN_MOTION": 1.70473886, "ECCENTRICITY": 0.0002683, "INCLINATION": 55.1334, "RA_OF_ASC_NODE": 226.8793, "ARG_OF_PERICENTER": 313.43, "MEAN_ANOMALY": 46.6407, "EPHEMERIS_TYPE": 0, "CLASSIFICATION_TYPE": "U", "NORAD_CAT_ID": 43056, "ELEMENT_SET_NO": 999, "REV_AT_EPOCH": 4967, "BSTAR": 0, "MEAN_MOTION_DOT": 4.1e-07, "MEAN_MOTION_DDOT": 0}, "tle": {"line1": "1 43056U 17079B   25337.97523817  .00000041  00000+0  00000+0 0  9997", "line2": "2 43056  55.1334 226.8793 0002683 313.4300  46.6407  1.70473886 49678"}}, "geometry": {"type": "Point", "coordinates": [-151.29170763039042, -24.040386159110625]}}, {"type": "Feature", "properties": {"norad_id": 43057, "name": "GSAT0217 (GALILEO 21)", "group": "gnss", "lat": -12.104759761329966, "lon": 55.397799325572684, "alt_km": 23230.92704225238, "timestamp": "2025-12-06T20:37:56.313333+00:00", "meta": {"OBJECT_NAME": "GSAT0217 (GALILEO 21)", "OBJECT_ID": "2017-079C", "EPOCH": "2025-12-05T22:56:13.502976", "MEAN_MOTION": 1.70473847, "ECCENTRICITY": 0.00027948, "INCLINATION": 55.1308, "RA_OF_ASC_NODE": 226.8227, "ARG_OF_PERICENTER": 341.4584, "MEAN_ANOMALY": 18.6294, "EPHEMERIS_TYPE": 0, "CLASSIFICATION_TYPE": "U", "NORAD_CAT_ID": 43057, "ELEMENT_SET_NO": 999, "REV_AT_EPOCH": 4969, "BSTAR": 0, "MEAN_MOTION_DOT": 3.5e-07, "MEAN_MOTION_DDOT": 0}, "tle": {"line1": "1 43057U 17079C   25339.95571184  .00000035  00000+0  00000+0 0  9991", "line2": "2 43057  55.1308 226.8227 0002794 341.4584  18.6294  1.70473847 49692"}}, "geometry": {"type": "Point", "coordinates": [55.397799325572684, -12.104759761329966]}}, {"type": "Feature", "properties": {"norad_id": 43058, "name": "GSAT0218 (GALILEO 22)", "group": "gnss", "lat": 45.14192251407428, "lon": -88.77053778903895, "alt_km": 23220.49927916997, "timestamp": "2025-12-06T20:37:56.313344+00:00", "meta": {"OBJECT_NAME": "GSAT0218 (GALILEO 22)", "OBJECT_ID": "2017-079D", "EPOCH": "2025-12-03T05:49:40.297728", "MEAN_MOTION": 1.70473824, "ECCENTRICITY": 0.00029171, "INCLINATION": 55.1321, "RA_OF_ASC_NODE": 226.8951, "ARG_OF_PERICENTER": 304.1404, "MEAN_ANOMALY": 55.9211, "EPHEMERIS_TYPE": 0, "CLASSIFICATION_TYPE": "U", "NORAD_CAT_ID": 43058, "ELEMENT_SET_NO": 999, "REV_AT_EPOCH": 4967, "BSTAR": 0, "MEAN_MOTION_DOT": 3.9e-07, "MEAN_MOTION_DDOT": 0}, "tle": {"line1": "1 43058U 17079D   25337.24282752  .00000039  00000+0  00000+0 0  9996", "line2": "2 43058  55.1321 226.8951 0002917 304.1404  55.9211  1.70473824 49672"}}, "geometry": {"type": "Point", "coordinates": [-88.77053778903895, 45.14192251407428]}}, {"type": "Feature", "properties": {"norad_id": 43107, "name": "BEIDOU-3 M7 (C27)", "group": "gnss", "lat": -3.725428701869084, "lon": 131.6591769704863, "alt_km": 21531.766260258635, "timestamp": "2025-12-06T20:37:56.313355+00:00", "meta": {"OBJECT_NAME": "BEIDOU-3 M7 (C27)", "OBJECT_ID": "2018-003A", "EPOCH": "2025-12-05T12:15:18.978048", "MEAN_MOTION": 1.86232243, "ECCENTRICITY": 0.00026626, "INCLINATION": 54.5032, "RA_OF_ASC_NODE": 309.0664, "ARG_OF_PERICENTER": 69.7812, "MEAN_ANOMALY": 290.2304, "EPHEMERIS_TYPE": 0, "CLASSIFICATION_TYPE": "U", "NORAD_CAT_ID": 43107, "ELEMENT_SET_NO": 999, "REV_AT_EPOCH": 5374, "BSTAR": 0, "MEAN_MOTION_DOT": -7.1e-07, "MEAN_MOTION_DDOT": 0}, "tle": {"line1": "1 43107U 18003A   25339.51063632 -.00000071  00000+0  00000+0 0  9992", "line2": "2 43107  54.5032 309.0664 0002662  69.7812 290.2304  1.86232243 53743"}}, "geometry": {"type": "Point", "coordinates": [131.6591769704863, -3.725428701869084]}}]}